{
"type": "FeatureCollection",
"name": "lane_centers",
"crs": { "type": "name", "properties": { "name": "urn:ogc:def:crs:OGC:1.3:CRS84" } },
"features": [
{"type":"Feature","properties":{"id":7,"direction":"forward"},"geometry":{"type":"MultiLineString","coordinates":[[[60.616662764420859,56.767999613505303],[60.616539319284342,56.76801610197338],[60.616476198540845,56.768024544681303],[60.616432253811524,56.7680304377851],[60.616393768970099,56.768035613336792],[60.616360744016561,56.768040071336358],[60.61632860690883,56.768044422467824],[60.6162973576469,56.768048666731175],[60.616266996230763,56.768052804126413],[60.616237522660441,56.768056834653564],[60.616209640318857,56.768060684121629],[60.616183349206025,56.768064352530629],[60.616158649321946,56.768067839880558],[60.616135540666605,56.76807114617143],[60.616114023240023,56.768074271403236],[60.616094097042186,56.768077215575985],[60.616075762073095,56.768079978689663],[60.616059018332756,56.768082560744276],[60.616042245921619,56.768085158542931],[60.6160254448397,56.768087772085643],[60.616008615086997,56.76809040137239],[60.615991756663504,56.768093046403166],[60.615974869569229,56.768095707178006],[60.615957953804163,56.768098383696881],[60.615941009368299,56.768101075959805],[60.615924036261653,56.768103783966772],[60.615906776447119,56.768106562822496],[60.615889229924719,56.768109412526975],[60.615871396694416,56.768112333080211],[60.615853276756241,56.76811532448221],[60.615834870110184,56.768118386732965],[60.61581617675624,56.768121519832476],[60.615797196694416,56.768124723780744],[60.615777929924711,56.768127998577768],[60.615759308247739,56.768131218269801],[60.6157413316635,56.768134382856843],[60.615724000171994,56.768137492338909],[60.615707313773235,56.768140546715976],[60.61569127246721,56.768143545988053],[60.61567587625391,56.768146490155146],[60.615661125133357,56.768149379217249],[60.615647019105531,56.768152213174361],[60.61563256902825,56.76815524393362],[60.615617774901509,56.768158471495035],[60.615602636725313,56.768161895858597],[60.615587154499664,56.768165517024315],[60.615571328224547,56.768169334992173],[60.615555157899969,56.768173349762186],[60.615538643525937,56.768177561334355],[60.615521785102437,56.768181969708664],[60.615504912343546,56.768186590628744],[60.61548802524927,56.768191424094574],[60.615471123819589,56.768196470106169],[60.615454208054516,56.768201728663527],[60.615437277954051,56.768207199766636],[60.615420333518202,56.768212883415515],[60.615403374746947,56.768218779610145],[60.615386401640293,56.768224888350531],[60.615369385527465,56.768231311972748],[60.615352326408455,56.768238050476789],[60.615335224283257,56.768245103862654],[60.615318079151891,56.768252472130342],[60.615300891014328,56.768260155279854],[60.615283659870585,56.768268153311197],[60.615266385720659,56.768276466224364],[60.615249068564552,56.768285094019355],[60.615233442984959,56.768292973966759],[60.615219508981852,56.768300106066562],[60.615207266555274,56.768306490318778],[60.615196715705196,56.768312126723401],[60.615187856431618,56.768317015280431],[60.615180688734569,56.768321155989852],[60.615175212614005,56.768324548851695],[60.615171428069957,56.768327193865957],[60.615167715202887,56.768329933344724],[60.615164074012768,56.768332767288015],[60.615160504499627,56.768335695695825],[60.615157006663466,56.768338718568153],[60.615153580504263,56.768341835905005],[60.615150226022038,56.768345047706383],[60.615146943216786,56.768348353972272],[60.615143732088505,56.768351754702692],[60.615140678649553,56.76835514756074],[60.615137782899936,56.768358532546429],[60.615135044839661,56.768361909659745],[60.615132464468715,56.768365278900703],[60.615130041787111,56.768368640269301],[60.615127776794843,56.768371993765541],[60.615125669491903,56.768375339389422],[60.615123719878291,56.76837867714093],[60.61512183361836,56.768381947209548],[60.615120010712097,56.768385149595254],[60.615118251159501,56.768388284298055],[60.615116554960579,56.768391351317959],[60.615114922115318,56.768394350654958],[60.615113352623723,56.768397282309053],[60.615111846485803,56.76840014628025],[60.615110403701557,56.768402942568535],[60.615109077911669,56.768405512107719],[60.615107869116137,56.768407854897809],[60.615106777314978,56.768409970938784],[60.615105802508175,56.768411860230657],[60.615104944695737,56.768413522773422],[60.615104203877664,56.768414958567085],[60.615103580053947,56.768416167611647],[60.615103073224596,56.768417149907101],[60.615102242693268,56.768418914700248],[60.61510108845998,56.768421461991082],[60.615099610524709,56.768424791779601],[60.615097808887469,56.768428904065814],[60.615095683548262,56.768433798849713],[60.615093234507071,56.768439476131306],[60.615090461763913,56.768445935910584],[60.615087365318786,56.768453178187556],[60.61508435452312,56.768460883936243],[60.615081429376914,56.768469053156636],[60.615078589880184,56.768477685848744],[60.615075836032908,56.768486782012559],[60.615073167835099,56.768496341648095],[60.615070585286759,56.768506364755332],[60.615068088387872,56.76851685133429],[60.61506567713846,56.76852780138497],[60.615063116330404,56.768539430610609],[60.615060405963703,56.768551739011215],[60.615057546038372,56.768564726586803],[60.615054536554382,56.768578393337357],[60.615051377511762,56.768592739262886],[60.615048068910497,56.768607764363381],[60.615044610750601,56.768623468638857],[60.615041003032061,56.768639852089301],[60.615037695519504,56.768654872236162],[60.615034688212916,56.768668529079441],[60.615031981112324,56.768680822619139],[60.615029574217715,56.768691752855247],[60.615027467529089,56.768701319787773],[60.615025661046438,56.768709523416724],[60.615022948699099,56.76872184076386],[60.615021735697923,56.768727719489988],[60.615020515766233,56.768733999920457],[60.615019288904051,56.768740682055267],[60.615018055111364,56.768747765894418],[60.615016814388184,56.768755251437923],[60.615015566734506,56.768763138685763],[60.615014312150322,56.768771427637951],[60.615013050635639,56.768780118294487],[60.615010156089284,56.768793626161326],[60.615005628511263,56.768811951238483],[60.614999467901569,56.768835093525951],[60.614991674260189,56.768863053023722],[60.614980456866142,56.768901733274191],[60.61496581571943,56.768951134277351],[60.614942378657005,56.769028966660329],[60.614894029189827,56.769188362304533]]]}},
{"type":"Feature","properties":{"id":8,"direction":"forward"},"geometry":{"type":"MultiLineString","coordinates":[[[60.615105353956672,56.768412729577555],[60.615092805849663,56.768425184267812],[60.615086420119056,56.768431913069946],[60.615082014062509,56.768437067547382],[60.61507819344591,56.768442031554585],[60.615074958269254,56.768446805091571],[60.615071843787845,56.768451849443153],[60.615068850001677,56.768457164609316],[60.615065976910756,56.768462750590096],[60.615063224515083,56.768468607385472],[60.615060751979811,56.768474033047582],[60.615058559304956,56.768479027576454],[60.615056646490508,56.76848359097206],[60.615055013536463,56.768487723234415],[60.615053660442832,56.768491424363511],[60.615052587209597,56.768494694359362],[60.615051793836777,56.768497533221954],[60.615051280324366,56.768499940951287],[60.615050708829926,56.768502620543174],[60.615050079353473,56.768505571997615],[60.615049391894999,56.768508795314602],[60.615048646454497,56.76851229049413],[60.615047843031988,56.76851605753621],[60.615046981627458,56.768520096440838],[60.6150460622409,56.768524407208012],[60.615045084872321,56.768528989837741],[60.615044172333235,56.768533330263502],[60.615043324623656,56.768537428485295],[60.61504254174357,56.768541284503122],[60.615041823692977,56.768544898316975],[60.615041170471883,56.768548269926868],[60.615040582080276,56.7685513993328],[60.615040058518169,56.768554286534766],[60.615039599785568,56.768556931532764],[60.615038782668108,56.768559663122694],[60.615037607165789,56.768562481304542],[60.615036073278617,56.768565386078329],[60.615034181006592,56.768568377444048],[60.615031930349708,56.768571455401691],[60.615029321307979,56.768574619951259],[60.615026353881397,56.768577871092766],[60.615023028069956,56.768581208826213],[60.615019816941675,56.76858483782344],[60.615016720496541,56.768588758084455],[60.615013738734561,56.768592969609266],[60.615010871655741,56.768597472397865],[60.615008119260068,56.768602266450259],[60.615005481547541,56.768607351766441],[60.615002958518176,56.768612728346412],[60.615000550171942,56.768618396190178],[60.614998041477968,56.768624780383824],[60.614995432436245,56.76863188092733],[60.614992723046754,56.768639697820724],[60.614989913309493,56.768648231063992],[60.614987003224485,56.768657480657126],[60.614983992791736,56.768667446600141],[60.61498088201121,56.768678128893029],[60.614977670882936,56.768689527535784],[60.614974416748467,56.76870115446193],[60.614971119607816,56.768713009671451],[60.614967779460983,56.768725093164349],[60.614964396307982,56.768737404940637],[60.614960970148786,56.768749945000295],[60.614957500983394,56.768762713343349],[60.614953988811834,56.768775709969766],[60.614950433634093,56.768788934879566],[60.614945840436796,56.768805974149934],[60.614940209219938,56.768826827780863],[60.614933539983532,56.768851495772353],[60.614925832727572,56.76887997812441],[60.614915605035279,56.768917742311316],[60.61490285690666,56.768964788333065],[60.61488314109139,56.769037518612528],[60.614843115838511,56.769185140418308]]]}},
{"type":"Feature","properties":{"id":10,"direction":"forward"},"geometry":{"type":"MultiLineString","coordinates":[[[60.61454825944292,56.767617210658337],[60.614569466650352,56.767673447734282],[60.614580394297704,56.767702327573048],[60.61458811145414,56.767722595866623],[60.61459497447602,56.767740501178992],[60.614600983363331,56.767756043510161],[60.614606923568246,56.767771305714781],[60.61461279509075,56.767786287792866],[60.614618597930821,56.767800989744416],[60.614624332088475,56.767815411569423],[60.614630510643345,56.767830943359385],[60.61463713359543,56.767847585114296],[60.614644200944738,56.767865336834163],[60.614651712691256,56.767884198518978],[60.614659668834996,56.767904170168748],[60.614668069375952,56.767925251783453],[60.614676914314131,56.767947443363127],[60.614686203649519,56.767970744907757],[60.614695134600055,56.76799315689162],[60.614703707165745,56.768014679314724],[60.614711921346576,56.768035312177076],[60.614719777142554,56.768055055478669],[60.614727274553687,56.768073909219503],[60.61473441357996,56.768091873399584],[60.614741194221381,56.768108948018906],[60.614747616477956,56.768125133077469],[60.614753666014273,56.768140192422031],[60.614759342830347,56.768154126052593],[60.614764646926176,56.768166933969155],[60.614769578301754,56.768178616171717],[60.614774136957088,56.768189172660279],[60.614778322892178,56.768198603434826],[60.614782136107017,56.768206908495387],[60.614785576601605,56.76821408784194],[60.614788830736074,56.768220613804743],[60.614791898510418,56.768226486383796],[60.614794779924637,56.76823170557909],[60.614797474978737,56.768236271390641],[60.614799983672711,56.768240183818435],[60.614802306006553,56.768243442862477],[60.614804441980283,56.768246048522769],[60.614806391593888,56.768248000799318],[60.614808527567611,56.768249850738734],[60.614810365805802,56.768251234049465],[60.614810849901446,56.768251598341024],[60.61481335859542,56.768253243606196],[60.61481605364952,56.76825478653425],[60.614818935063738,56.768256227125178],[60.614822002838082,56.768257565378974],[60.614825256972551,56.768258801295644],[60.614828697467139,56.768259934875196],[60.614832969414593,56.768261084198869],[60.614838072814898,56.768262249266662],[60.614844007668069,56.768263430078576],[60.614850773974098,56.768264626634604],[60.614858371732979,56.768265838934767],[60.614866800944739,56.768267066979035],[60.614876061609337,56.768268310767432],[60.6148861537268,56.76826957029995],[60.614895973471782,56.768270766855814],[60.61490552084426,56.768271900435039],[60.614914795844264,56.768272971037618],[60.614923798471779,56.768273978663551],[60.614932528726797,56.768274923312838],[60.614940986609334,56.768275804985478],[60.614949172119381,56.768276623681466],[60.61495708525694,56.768277379400807],[60.614964553997282,56.768278064271456],[60.614971578340409,56.768278678293427],[60.614978158286313,56.768279221466699],[60.614984293834993,56.768279693791285],[60.614989984986465,56.768280095267173],[60.614995231740714,56.768280425894368],[60.615000034097747,56.768280685672877],[60.615004392057571,56.768280874602695],[60.615009151408422,56.768280984811753],[60.615014312150308,56.768281016300051],[60.615019874283234,56.76828096906759],[60.615025837807188,56.768280843114376],[60.615032202722183,56.768280638440402],[60.615038969028213,56.768280355045675],[60.615046136725269,56.768279992930175],[60.615053705813374,56.768279552093915],[60.615061188889101,56.768279001048569],[60.615068585952471,56.768278339794122],[60.615075897003486,56.768277568330589],[60.615083122042122,56.76827668665797],[60.615090261068403,56.768275694776243],[60.61509731408232,56.768274592685422],[60.615104281083859,56.768273380385509],[60.615111162073035,56.768272057876509],[60.615118387111679,56.768270507077069],[60.615125956199776,56.768268727987191],[60.615133869337342,56.768266720606888],[60.615142126524361,56.768264484936147],[60.615150727760835,56.768262020974973],[60.615159673046776,56.76825932872336],[60.615168962382171,56.768256408181323],[60.61517859576702,56.768253259348846],[60.615188026403011,56.76825012605147],[60.615197254290138,56.768247008289201],[60.615206279428399,56.76824390606204],[60.615215101817796,56.768240819369993],[60.615223721458335,56.768237748213039],[60.615232138350009,56.768234692591179],[60.615240352492812,56.768231652504433],[60.615248363886749,56.768228627952794],[60.615256895461577,56.768225407016146],[60.615265947217274,56.768221989694482],[60.615275519153862,56.768218375987807],[60.615285611271332,56.768214565896123],[60.615296223569679,56.76821055941943],[60.615307356048902,56.768206356557727],[60.615319008709008,56.768201957311014],[60.615331181550005,56.768197361679292],[60.615344585181539,56.76819267924504],[60.615359219603626,56.768187910008251],[60.615375084816264,56.76818305396894],[60.615392180819441,56.768178111127099],[60.615410507613177,56.768173081482729],[60.615430065197458,56.768167965035836],[60.615450853572284,56.768162761786407],[60.615472872737669,56.768157471734455],[60.615496210759304,56.768151953390387],[60.615520867637201,56.768146206754203],[60.615546843371362,56.76814023182591],[60.615574137961779,56.768134028605495],[60.61560275140846,56.76812759709297],[60.615632683711397,56.768120937288337],[60.615663934870597,56.768114049191581],[60.615696504886046,56.768106932802716],[60.615731741284812,56.768099627481355],[60.615769644066887,56.768092133227498],[60.615810213232272,56.768084450041151],[60.61585344878096,56.768076577922308],[60.615899350712958,56.768068516870969],[60.615947919028265,56.768060266887147],[60.615999153726875,56.768051827970822],[60.616053054808795,56.768043200122008],[60.616107438702215,56.768034716113291],[60.616162305407158,56.768026375944679],[60.616217654923581,56.768018179616178],[60.616273487251505,56.768010127127788],[60.616337022837683,56.768001283838501],[60.616408261682089,56.767991649748332],[60.616508865124977,56.767978420934284],[60.616703817187009,56.767953185627398]]]}},
{"type":"Feature","properties":{"id":11,"direction":"forward"},"geometry":{"type":"MultiLineString","coordinates":[[[60.614810365805802,56.768251234049465],[60.614869338309489,56.768326461671272],[60.614897048626347,56.768361515967634],[60.614915053881376,56.768383872624312],[60.61492958997102,56.768401490297315],[60.614940656895286,56.768414368986647],[60.61495033328633,56.768425161577639],[60.614958619144126,56.768433868070289],[60.614965514468707,56.768440488464599],[60.614971019260054,56.768445022760559],[60.614976237343512,56.768449336639094],[60.614981168719098,56.768453430100188],[60.614985813386795,56.768457303143848],[60.614990171346605,56.768460955770095],[60.614994242598542,56.768464387978888],[60.61499802714259,56.768467599770233],[60.615001524978751,56.768470591144151],[60.615004736107039,56.768473362100643],[60.6150080694064,56.768476182118121],[60.615011524876827,56.768479051196593],[60.615015102518328,56.768481969336072],[60.615018802330894,56.768484936536545],[60.615022624314534,56.768487952798012],[60.615026568469254,56.768491018120471],[60.615030634795048,56.768494132503932],[60.615034823291907,56.768497295948386],[60.615038609394382,56.76850096643976],[60.61504199310248,56.768505143978047],[60.615047038712959,56.768509702610821],[60.615049617632302,56.768514894242948],[60.615049851028239,56.768521621351894],[60.615051867494273,56.768529632032795],[60.615053966236843,56.768541759670519],[60.615057237765498,56.768566126562312]]]}},
{"type":"Feature","properties":{"id":13,"direction":"forward"},"geometry":{"type":"MultiLineString","coordinates":[[[60.614488953090927,56.767613490628236],[60.61459130323361,56.767868753931744],[60.614641127676919,56.767992681855937],[60.614672543135065,56.768070362168643],[60.614696921846146,56.768130157459154],[60.614714263810157,56.768172067727463],[60.614728359773125,56.768205547169998],[60.614739209735035,56.768230595786761],[60.614746813695902,56.768247213577737],[60.614751171655698,56.768255400542941],[60.614755773317214,56.768263485169555],[60.614760618680435,56.768271467457552],[60.614765707745356,56.76827934740696],[60.614771040511968,56.768287125017778],[60.614776616980279,56.768294800289986],[60.614782437150296,56.768302373223605],[60.614788501022012,56.768309843818621],[60.61479480859542,56.76831721207504],[60.614801445882904,56.768324934572163],[60.61480841288445,56.768333011309977],[60.614815709600059,56.768341442288502],[60.614823336029737,56.768350227507725],[60.614831292173477,56.768359366967644],[60.614839578031287,56.768368860668275],[60.614848193603166,56.768378708609596],[60.614857138889107,56.768388910791622],[60.614865768796371,56.76839884532184],[60.614874083324963,56.768408512200246],[60.614882082474892,56.768417911426852],[60.614889766246144,56.768427043001644],[60.614897134638724,56.768435906924637],[60.614904187652627,56.768444503195823],[60.614910925287873,56.768452831815196],[60.614917347544434,56.76846089278277],[60.614923483093122,56.76846867035588],[60.614929331933922,56.768476164534519],[60.614934894066835,56.768483375318695],[60.614940169491888,56.768490302708415],[60.614945158209039,56.768496946703664],[60.614949860218317,56.768503307304442],[60.614954275519707,56.768509384510764],[60.61495840411321,56.76851517832263],[60.614962403688175,56.768520657253013],[60.614966274244594,56.768525821301907],[60.614970015782461,56.768530670469339],[60.614973628301776,56.768535204755295],[60.614977111802546,56.768539424159769],[60.614980466284784,56.768543328682767],[60.614983691748463,56.76854691832429],[60.61498678819359,56.76855019308433],[60.61498971261399,56.768553546564192],[60.614992465009664,56.768556978763876],[60.61499504538061,56.768560489683374],[60.614997453726815,56.768564079322701],[60.614999690048307,56.768567747681843],[60.615001754345059,56.768571494760785],[60.615003646617083,56.768575320559563],[60.615005366864381,56.768579225078156],[60.615007137522753,56.768584271270555],[60.615008958592213,56.768590459136774],[60.615010830072734,56.7685977886768],[60.615012751964336,56.768606259890632],[60.615014989708996,56.768617502516918],[60.61501754330672,56.768631516555644],[60.61502120908348,56.768653191222711],[60.615028376017165,56.768697194165853]]]}},
{"type":"Feature","properties":{"id":14,"direction":"backward"},"geometry":{"type":"MultiLineString","coordinates":[[[60.614779179628783,56.769181094422343],[60.614819471130872,56.769052182943355],[60.614839257798636,56.768988721116571],[60.614851970132761,56.768947738448993],[60.614862084966816,56.768914911442963],[60.6148696023008,56.768890240098479],[60.614876014412566,56.76886894991631],[60.614881321302136,56.768851040896479],[60.614885522969473,56.768836513038963],[60.614888619414607,56.768825366343762],[60.614891629847378,56.768814148797347],[60.614894554267764,56.768802860399717],[60.6148973926758,56.768791501150858],[60.614900145071488,56.768780071050784],[60.61490281145479,56.768768570099496],[60.614905391825729,56.768756998296979],[60.614907886184312,56.768745355643247],[60.614910294530524,56.768733642138301],[60.614912463507643,56.768723144462555],[60.614914393115669,56.768713862616011],[60.614916083354593,56.768705796598688],[60.614917534224418,56.768698946410566],[60.614918745725149,56.768693312051653],[60.614919717856786,56.768688893521954],[60.614920450619323,56.768685690821457],[60.614920944012781,56.76868370395016],[60.614921400070223,56.768681867429073],[60.614921818791672,56.768680181258198],[60.614922200177134,56.768678645437518],[60.61492254422658,56.768677259967035],[60.614922850940047,56.768676024846762],[60.614923120317513,56.7686749400767],[60.614923352358986,56.768674005656834],[60.614923547064464,56.768673221587164],[60.614923946798058,56.76867181130234],[60.614924551559781,56.768669774802369],[60.61492536134962,56.768667112087229],[60.614926376167588,56.768663823156928],[60.614927596013672,56.768659908011472],[60.614929020887878,56.768655366650862],[60.6149306507902,56.768650199075083],[60.614932485720644,56.768644405284149],[60.614934248974123,56.7686385957483],[60.614935940550623,56.768632770467505],[60.614937560450159,56.768626929441808],[60.614939108672729,56.768621072671181],[60.614940585218321,56.768615200155622],[60.614941990086947,56.768609311895162],[60.614943323278602,56.768603407889756],[60.614944584793285,56.76859748813942],[60.614946376717555,56.76859098585814],[60.614948699051396,56.768583901045901],[60.614951551794832,56.768576233702703],[60.614954934947839,56.768567983828547],[60.614958848510433,56.768559151423432],[60.614963292482614,56.768549736487358],[60.614968266864366,56.768539739020326],[60.614973771655713,56.76852915902235],[60.614979333788625,56.768518382220108],[60.614984953263118,56.768507408613615],[60.614990630079191,56.768496238202871],[60.614996364236845,56.768484870987862],[60.615002155736079,56.768473306968616],[60.615008004576879,56.768461546145112],[60.615013910759259,56.768449588517356],[60.615019874283227,56.768437434085349],[60.615025923819552,56.768425814950049],[60.615032059368232,56.768414731111463],[60.615038280929291,56.768404182569583],[60.615044588502712,56.768394169324417],[60.615050982088491,56.768384691375957],[60.615057461686639,56.768375748724203],[60.615064027297151,56.768367341369171],[60.61507067892002,56.768359469310852],[60.615077459561448,56.768351738948262],[60.615084369221421,56.768344150281401],[60.615091407899939,56.768336703310268],[60.615098575596988,56.768329398034872],[60.615105872312604,56.768322234455212],[60.615113298046765,56.768315212571295],[60.615120852799464,56.7683083323831],[60.615128536570722,56.768301593890641],[60.615137150089247,56.768294760723094],[60.615146693355037,56.768287832880475],[60.615157166368107,56.768280810362768],[60.615168569128457,56.768273693169974],[60.61518279185475,56.768265544315469],[60.615199834546992,56.768256363799225],[60.615225367861228,56.768243340661343],[60.615276403765556,56.768218042022049]]]}},
{"type":"Feature","properties":{"id":15,"direction":"backward"},"geometry":{"type":"MultiLineString","coordinates":[[[60.614922670889825,56.768676749900656],[60.614921392742588,56.768657100150058],[60.614920232593384,56.768646733878072],[60.614918764393146,56.76863910116785],[60.614916846125496,56.768632018713753],[60.614914477790435,56.768625486515788],[60.614911612049198,56.768618776805411],[60.61490824890177,56.768611889582637],[60.614904388348144,56.768604824847451],[60.614900030388327,56.768597582599853],[60.614895414391412,56.768589875901107],[60.614890540357415,56.768581704751206],[60.61488540828632,56.76857306915015],[60.614880018178127,56.768563969097933],[60.614874370032844,56.768554404594568],[60.614868463850463,56.768544375640047],[60.614862299630985,56.768533882234372],[60.614855877374424,56.76852292437755],[60.614849254422339,56.768511706739758],[60.614842430774729,56.768500229321006],[60.614835406431602,56.768488492121293],[60.614828181392973,56.768476495140625],[60.614820755658812,56.768464238378989],[60.614813129229134,56.768451721836392],[60.614805302103939,56.768438945512834],[60.614797274283227,56.7684259094083],[60.614789690859737,56.768413573913641],[60.61478255183345,56.768401939028855],[60.614775857204393,56.768391004753923],[60.614769606972558,56.768380771088857],[60.614763801137933,56.768371238033659],[60.61475843970053,56.768362405588313],[60.614753522660344,56.768354273752841],[60.614749050017373,56.768346842527244],[60.614744749399136,56.768339600230043],[60.61474062080562,56.768332546861245],[60.614736664236844,56.768325682420858],[60.614732879692795,56.768319006908875],[60.614729267173473,56.768312520325303],[60.614725826678878,56.768306222670134],[60.614722558209024,56.768300113943376],[60.614719461763897,56.768294194145035],[60.614716465666525,56.768288447531638],[60.614713569916916,56.7682828741032],[60.614710774515061,56.768277473859719],[60.614708079460961,56.768272246801189],[60.614705484754623,56.768267192927624],[60.614702990396047,56.76826231223901],[60.614700596385227,56.768257604735354],[60.614698302722168,56.768253070416662],[60.614695894375956,56.768248205469433],[60.614693371346583,56.768243009893666],[60.614690733634063,56.768237483689376],[60.61468798123839,56.768231626856561],[60.614685114159563,56.768225439395209],[60.61468213239759,56.768218921305319],[60.614679035952456,56.768212072586905],[60.614675824824175,56.768204893239968],[60.614672585025104,56.768197524960996],[60.614669316555243,56.768189967750004],[60.614666019414599,56.768182221606985],[60.614662693603158,56.768174286531931],[60.614659339120934,56.768166162524857],[60.614655955967919,56.768157849585755],[60.614652544144107,56.768149347714626],[60.614649103649512,56.768140656911463],[60.614642986176904,56.768125241032436],[60.614634191726267,56.76810310007756],[60.614622720297625,56.768074234046814],[60.614608571890962,56.768038642940198],[60.61458863946644,56.767988515331467],[60.61456292302406,56.767923851220623],[60.614522101444294,56.767821216328869],[60.614438211368558,56.767610307819886]]]}},
{"type":"Feature","properties":{"id":16,"direction":"backward"},"geometry":{"type":"MultiLineString","coordinates":[[[60.614737216337012,56.769178438911091],[60.614756892594315,56.769108459224391],[60.614766939763598,56.769072820933282],[60.614773916597287,56.769048197475534],[60.614780009346205,56.769026813330399],[60.61478521801034,56.769008668497882],[60.61479027133997,56.768991171137728],[60.61479516933511,56.768974321249956],[60.614799911995732,56.768958118834533],[60.614804499321849,56.768942563891457],[60.614808828610876,56.768927701675238],[60.614812899862812,56.768913532185863],[60.614816713077644,56.768900055423316],[60.614820268255386,56.768887271387598],[60.614823565396037,56.768875180078716],[60.614826604499598,56.768863781496677],[60.614829385566054,56.768853075641459],[60.614831908595427,56.768843062513071],[60.614834259600066,56.768833663396251],[60.614836438579971,56.768824878290985],[60.614838445535149,56.768816707197274],[60.6148402804656,56.768809150115125],[60.614841943371317,56.76880220704453],[60.614843434252307,56.768795877985497],[60.614844753108571,56.768790162938025],[60.614845899940093,56.768785061902108],[60.614846960759259,56.768779960865494],[60.614847935566061,56.768774859828191],[60.614848824360493,56.768769758790185],[60.614849627142569,56.768764657751483],[60.614850343912281,56.768759556712091],[60.614850974669622,56.768754455671996],[60.614851519414586,56.768749354631211],[60.6148519781472,56.768744253589723],[60.614852393873619,56.768739073827632],[60.61485276659387,56.768733815344945],[60.614853096307932,56.768728478141639],[60.614853383015813,56.768723062217738],[60.614853626717519,56.768717567573226],[60.614853827413036,56.768711994208104],[60.614853985102371,56.768706342122378],[60.614854099785532,56.768700611316042],[60.614854114120924,56.768694786044804],[60.614854028108553,56.768688866308672],[60.614853841748427,56.768682852107631],[60.614853555040547,56.768676743441702],[60.614853167984904,56.768670540310858],[60.614852680581521,56.768664242715118],[60.614852092830361,56.768657850654492],[60.614851404731425,56.768651364128949],[60.614850487266203,56.7686450114265],[60.614849340434674,56.768638792547151],[60.614847964236844,56.768632707490866],[60.614846358672708,56.768626756257675],[60.614844523742264,56.768620938847569],[60.614842459445505,56.768615255260549],[60.614840165782439,56.76860970549663],[60.614837642753074,56.768604289555796],[60.614833929886004,56.768596992198603],[60.614829027181202,56.768587813425057],[60.614822934638696,56.768576753235166],[60.614815652258486,56.768563811628923],[60.61480718004055,56.768548988606327],[60.614797517984911,56.768532284167378],[60.614786666091554,56.768513698312084],[60.614774624360486,56.768493231040438],[60.614763414082276,56.768473850102794],[60.614753035256925,56.768455555499166],[60.614743487884439,56.768438347229548],[60.614734771964805,56.768422225293946],[60.614726887498037,56.768407189692354],[60.61471983448412,56.768393240424757],[60.614713612923069,56.768380377491177],[60.614708222814876,56.768368600891606],[60.614703019066802,56.768357194276781],[60.614698001678853,56.768346157646697],[60.61469317065103,56.768335491001352],[60.61468852598334,56.768325194340733],[60.614684067675768,56.76831526766486],[60.614679795728314,56.768305710973735],[60.614675710140986,56.768296524267349],[60.614671810913791,56.768287707545696],[60.614668241400651,56.768279756751781],[60.61466500160158,56.768272671885612],[60.614662091516578,56.768266452947174],[60.614659511145632,56.768261099936453],[60.614657260488755,56.768256612853484],[60.614655339545948,56.768252991698262],[60.614653748317195,56.768250236470763],[60.614652486802512,56.768248347170989],[60.614651207469024,56.768246424929465],[60.614649910316729,56.768244469746179],[60.614648595345628,56.76824248162113],[60.614647262555721,56.768240460554317],[60.614645911947008,56.768238406545741],[60.614644543519489,56.768236319595403],[60.614643157273164,56.768234199703294],[60.614641753208033,56.768232046869429],[60.61463665655674,56.768220518244092],[60.614627867319271,56.768199613827292],[60.614615385495647,56.768169333619028],[60.614599211085853,56.768129677619299],[60.614575475995579,56.768071000932409],[60.614544180224833,56.767993303558349],[60.614493719490689,56.767867650810032],[60.614389280944373,56.767607238626155]]]}}
]
}
