{
"type": "FeatureCollection",
"name": "pedestrian_crossings",
"crs": { "type": "name", "properties": { "name": "urn:ogc:def:crs:OGC:1.3:CRS84" } },
"features": [
{"type":"Feature","properties":{"id":4},"geometry":{"type":"MultiPolygon","coordinates":[[[[60.615055982975377,56.769113669306392],[60.614989311996453,56.769104555048976],[60.614950759112183,56.76919195227326],[60.615012708780633,56.769195872556246],[60.615055982975377,56.769113669306392]]]]}},
{"type":"Feature","properties":{"id":5},"geometry":{"type":"MultiPolygon","coordinates":[[[[60.614733137945855,56.76801897140556],[60.614719513984738,56.767983795277743],[60.614526751895625,56.768010125355339],[60.614541120997927,56.768043802930755],[60.614733137945855,56.76801897140556]]]]}}
]
}
