{
"type": "FeatureCollection",
"name": "road_polygons",
"crs": { "type": "name", "properties": { "name": "urn:ogc:def:crs:OGC:1.3:CRS84" } },
"features": [
{"type":"Feature","properties":{"id":2},"geometry":{"type":"MultiPolygon","coordinates":[[[[60.616644119808242,56.768020699271212],[60.616730290357317,56.767923246247221],[60.615995598549127,56.768028841377514],[60.61531346315499,56.768169783705275],[60.615252910450174,56.768193966785873],[60.615201532397627,56.768217646037122],[60.615143732088512,56.768245859593485],[60.615095106431625,56.768256439671681],[60.615051985566076,56.76826273733581],[60.615012534561451,56.768263493055443],[60.614974001022048,56.768262485429268],[60.614948770728375,56.768262485429275],[60.614912072119395,56.768257951111174],[60.614856565473346,56.768248378660019],[60.614822619260053,56.768234271885426],[60.614807939816451,56.768212104086068],[60.614578262850408,56.767619092641752],[60.614365074227763,56.767605720243502],[60.614506093757704,56.767961707803067],[60.614684082011202,56.768378866072538],[60.614807939816451,56.768603817241463],[60.614820325596988,56.768622961959295],[60.614826289120941,56.768637824299262],[60.61482720658617,56.768646892842796],[60.614818031933929,56.768788966404209],[60.614702638148742,56.76917625074212],[60.614950759112183,56.76919195227326],[60.615146025751564,56.768749291660832],[60.61506299514879,56.768688708876162],[60.615110703340427,56.768488696823567],[60.615115290666573,56.76847030775243],[60.615117584329624,56.768455193440616],[60.615122630388349,56.768444865324021],[60.615127676447074,56.76843227005601],[60.615138686029788,56.768411109996237],[60.61514419082112,56.768401285678671],[60.615150154345081,56.768389949924448],[60.615158411532107,56.768377858449497],[60.615167586184349,56.768367530311536],[60.615179054499649,56.768357957888455],[60.615187770419283,56.768350904522499],[60.61519969746719,56.768339316846976],[60.615220340434725,56.768326973449533],[60.615236854808764,56.76831689720369],[60.61525382791541,56.768307576673891],[60.615274012150337,56.76829775232914],[60.615298783711395,56.768284905105176],[60.615320802876766,56.768277347912566],[60.615373098394549,56.768257195391449],[60.61546255125392,56.768226462775807],[60.615475395767056,56.7682131117136],[60.61572127644714,56.768157692159129],[60.615818069028272,56.768136028129156],[60.615863483556886,56.768127211369176],[60.615915320342054,56.768119906052178],[60.616012571655816,56.768106806859535],[60.616644119808242,56.768020699271212]]]]}}
]
}
